0 MIDAS 5 DEB
1 18603U 62010G   13286.91441231  .00000049  00000-0  92317-2 0  5513
2 18603 086.6582 276.2508 0312348 341.4109 017.5797 09.40959282943367
0 MIDAS 5 DEB
1 18603U 62010G   13286.92132742 -.00000009  00000-0 -25650-2 0  5523
2 18603 086.6602 276.2475 0313787 341.5359 040.8457 09.40958793943378
0 MIDAS 5 DEB
1 18603U 62010G   13293.93819884  .00000043  00000-0  79956-2 0  5536
2 18603 086.6647 275.2282 0313649 332.9972 050.0904 09.40958327944031
0 MIDAS 5 DEB
1 18603U 62010G   13295.95732304  .00000052  00000-0  98170-2 0  5541
2 18603 086.6594 274.9304 0313737 330.5791 049.7141 09.40958444944223
